start=new Date('2023-02-10T00:00:00.000Z').valueOf();
sats=[{"DECAY_DATE":null,"MEAN_MOTION":"15.01260499","TLE_LINE1":"1 53229U 22084AS  23040.89617807  .00006494  00000-0  50974-3 0  9993","APOAPSIS":"564.328","RA_OF_ASC_NODE":"103.7853","ECCENTRICITY":"0.00018980","LAUNCH_DATE":"2022-07-22","OBJECT_TYPE":"PAYLOAD","GP_ID":"224960437","CLASSIFICATION_TYPE":"U","OBJECT_NAME":"STARLINK-4367","SITE":"AFWTR","INCLINATION":"97.6543","PERIOD":"95.919","EPOCH":"2023-02-09T21:30:29.785248","ARG_OF_PERICENTER":"99.5733","EPHEMERIS_TYPE":"0","NORAD_CAT_ID":"53229","REV_AT_EPOCH":"3071","MEAN_ANOMALY":"260.5706","RCS_SIZE":"LARGE","BSTAR":"0.00050974000000","ELEMENT_SET_NO":"999","MEAN_MOTION_DOT":"0.00006494","TLE_LINE2":"2 53229  97.6543 103.7853 0001898  99.5733 260.5706 15.01260499 30710","TIME_SYSTEM":"UTC","SEMIMAJOR_AXIS":"6941.145","COUNTRY_CODE":"US","FILE":"3783241","MEAN_ELEMENT_THEORY":"SGP4","CENTER_NAME":"EARTH","PERIAPSIS":"561.693","REF_FRAME":"TEME","MEAN_MOTION_DDOT":"0.0000000000000","OBJECT_ID":"2022-084AS"},{"GP_ID":"224960687","OBJECT_TYPE":"PAYLOAD","INCLINATION":"97.6531","PERIOD":"95.919","SITE":"AFWTR","CLASSIFICATION_TYPE":"U","OBJECT_NAME":"STARLINK-4364","MEAN_MOTION":"15.01262549","DECAY_DATE":null,"APOAPSIS":"564.241","TLE_LINE1":"1 53230U 22084AT  23040.89802825  .00002215  00000-0  17700-3 0  9998","RA_OF_ASC_NODE":"103.7901","ECCENTRICITY":"0.00017820","LAUNCH_DATE":"2022-07-22","TLE_LINE2":"2 53230  97.6531 103.7901 0001782  98.6063 261.5363 15.01262549 30719","TIME_SYSTEM":"UTC","MEAN_MOTION_DOT":"0.00002215","MEAN_ELEMENT_THEORY":"SGP4","FILE":"3783241","COUNTRY_CODE":"US","SEMIMAJOR_AXIS":"6941.139","PERIAPSIS":"561.767","CENTER_NAME":"EARTH","OBJECT_ID":"2022-084AT","REF_FRAME":"TEME","MEAN_MOTION_DDOT":"0.0000000000000","EPOCH":"2023-02-09T21:33:09.640800","ARG_OF_PERICENTER":"98.6063","MEAN_ANOMALY":"261.5363","REV_AT_EPOCH":"3071","EPHEMERIS_TYPE":"0","NORAD_CAT_ID":"53230","RCS_SIZE":"LARGE","ELEMENT_SET_NO":"999","BSTAR":"0.00017700000000"},{"CENTER_NAME":"EARTH","PERIAPSIS":"561.653","REF_FRAME":"TEME","MEAN_MOTION_DDOT":"0.0000000000000","OBJECT_ID":"2022-084AU","MEAN_MOTION_DOT":"-0.00000569","TLE_LINE2":"2 53231  97.6531 103.7836 0001987  98.6382 261.5067 15.01253406 30711","TIME_SYSTEM":"UTC","SEMIMAJOR_AXIS":"6941.167","COUNTRY_CODE":"US","FILE":"3783241","MEAN_ELEMENT_THEORY":"SGP4","NORAD_CAT_ID":"53231","EPHEMERIS_TYPE":"0","REV_AT_EPOCH":"3071","MEAN_ANOMALY":"261.5067","RCS_SIZE":"LARGE","ELEMENT_SET_NO":"999","BSTAR":"-0.00003974400000","EPOCH":"2023-02-09T21:25:09.966144","ARG_OF_PERICENTER":"98.6382","CLASSIFICATION_TYPE":"U","OBJECT_NAME":"STARLINK-4370","SITE":"AFWTR","INCLINATION":"97.6531","PERIOD":"95.920","OBJECT_TYPE":"PAYLOAD","GP_ID":"224959680","RA_OF_ASC_NODE":"103.7836","ECCENTRICITY":"0.00019870","LAUNCH_DATE":"2022-07-22","DECAY_DATE":null,"MEAN_MOTION":"15.01253406","TLE_LINE1":"1 53231U 22084AU  23040.89247646 -.00000569  00000-0 -39744-4 0  9998","APOAPSIS":"564.411"},{"LAUNCH_DATE":"2022-07-22","ECCENTRICITY":"0.00019940","RA_OF_ASC_NODE":"103.7823","APOAPSIS":"564.444","TLE_LINE1":"1 53232U 22084AV  23040.89433171 -.00001747  00000-0 -13150-3 0  9990","MEAN_MOTION":"15.01244394","DECAY_DATE":null,"PERIOD":"95.920","INCLINATION":"97.6534","SITE":"AFWTR","CLASSIFICATION_TYPE":"U","OBJECT_NAME":"STARLINK-4371","GP_ID":"224960927","OBJECT_TYPE":"PAYLOAD","RCS_SIZE":"LARGE","ELEMENT_SET_NO":"999","BSTAR":"-0.00013150000000","MEAN_ANOMALY":"269.9607","REV_AT_EPOCH":"3071","EPHEMERIS_TYPE":"0","NORAD_CAT_ID":"53232","ARG_OF_PERICENTER":"90.1846","EPOCH":"2023-02-09T21:27:50.259744","OBJECT_ID":"2022-084AV","REF_FRAME":"TEME","MEAN_MOTION_DDOT":"0.0000000000000","PERIAPSIS":"561.676","CENTER_NAME":"EARTH","MEAN_ELEMENT_THEORY":"SGP4","FILE":"3783241","COUNTRY_CODE":"US","SEMIMAJOR_AXIS":"6941.195","TLE_LINE2":"2 53232  97.6534 103.7823 0001994  90.1846 269.9607 15.01244394 30719","TIME_SYSTEM":"UTC","MEAN_MOTION_DOT":"-0.00001747"},{"GP_ID":"224960937","OBJECT_TYPE":"PAYLOAD","PERIOD":"95.916","INCLINATION":"97.6560","SITE":"AFWTR","CLASSIFICATION_TYPE":"U","OBJECT_NAME":"STARLINK-4372","APOAPSIS":"563.688","TLE_LINE1":"1 53233U 22084AW  23040.89060481 -.00013267  00000-0 -10286-2 0  9997","MEAN_MOTION":"15.01320690","DECAY_DATE":null,"LAUNCH_DATE":"2022-07-22","ECCENTRICITY":"0.00012440","RA_OF_ASC_NODE":"103.7727","FILE":"3783241","MEAN_ELEMENT_THEORY":"SGP4","COUNTRY_CODE":"US","SEMIMAJOR_AXIS":"6940.960","TIME_SYSTEM":"UTC","TLE_LINE2":"2 53233  97.6560 103.7727 0001244  72.9431 287.1929 15.01320690 30711","MEAN_MOTION_DOT":"-0.00013267","OBJECT_ID":"2022-084AW","MEAN_MOTION_DDOT":"0.0000000000000","REF_FRAME":"TEME","PERIAPSIS":"561.961","CENTER_NAME":"EARTH","ARG_OF_PERICENTER":"72.9431","EPOCH":"2023-02-09T21:22:28.255584","RCS_SIZE":"LARGE","BSTAR":"-0.00102860000000","ELEMENT_SET_NO":"999","MEAN_ANOMALY":"287.1929","REV_AT_EPOCH":"3071","NORAD_CAT_ID":"53233","EPHEMERIS_TYPE":"0"},{"ECCENTRICITY":"0.00011050","RA_OF_ASC_NODE":"103.7713","LAUNCH_DATE":"2022-07-22","DECAY_DATE":null,"MEAN_MOTION":"15.01238150","TLE_LINE1":"1 53234U 22084AX  23040.88901881  .00004603  00000-0  36293-3 0  9994","APOAPSIS":"563.846","SITE":"AFWTR","PERIOD":"95.921","INCLINATION":"97.6558","OBJECT_NAME":"STARLINK-4368","CLASSIFICATION_TYPE":"U","OBJECT_TYPE":"PAYLOAD","GP_ID":"224961187","MEAN_ANOMALY":"275.5877","EPHEMERIS_TYPE":"0","NORAD_CAT_ID":"53234","REV_AT_EPOCH":"3172","RCS_SIZE":"LARGE","ELEMENT_SET_NO":"999","BSTAR":"0.00036293000000","EPOCH":"2023-02-09T21:20:11.225184","ARG_OF_PERICENTER":"84.5474","CENTER_NAME":"EARTH","PERIAPSIS":"562.312","REF_FRAME":"TEME","MEAN_MOTION_DDOT":"0.0000000000000","OBJECT_ID":"2022-084AX","MEAN_MOTION_DOT":"0.00004603","TIME_SYSTEM":"UTC","TLE_LINE2":"2 53234  97.6558 103.7713 0001105  84.5474 275.5877 15.01238150 31720","MEAN_ELEMENT_THEORY":"SGP4","FILE":"3783241","SEMIMAJOR_AXIS":"6941.214","COUNTRY_CODE":"US"},{"ARG_OF_PERICENTER":"91.7286","EPOCH":"2023-02-09T17:48:37.903104","RCS_SIZE":"LARGE","ELEMENT_SET_NO":"999","BSTAR":"0.00041021000000","MEAN_ANOMALY":"268.3831","NORAD_CAT_ID":"53242","EPHEMERIS_TYPE":"0","REV_AT_EPOCH":"3163","MEAN_ELEMENT_THEORY":"SGP4","FILE":"3783241","SEMIMAJOR_AXIS":"6917.869","COUNTRY_CODE":"US","MEAN_MOTION_DOT":"0.00006247","TLE_LINE2":"2 53242  53.2150 204.7067 0001093  91.7286 268.3831 15.08843651 31631","TIME_SYSTEM":"UTC","REF_FRAME":"TEME","MEAN_MOTION_DDOT":"0.0000000000000","OBJECT_ID":"2022-086A","CENTER_NAME":"EARTH","PERIAPSIS":"538.978","TLE_LINE1":"1 53242U 22086A   23040.74210536  .00006247  00000-0  41021-3 0  9991","APOAPSIS":"540.490","DECAY_DATE":null,"MEAN_MOTION":"15.08843651","LAUNCH_DATE":"2022-07-24","RA_OF_ASC_NODE":"204.7067","ECCENTRICITY":"0.00010930","OBJECT_TYPE":"PAYLOAD","GP_ID":"224960428","SITE":"AFETR","INCLINATION":"53.2150","PERIOD":"95.437","OBJECT_NAME":"STARLINK-4056","CLASSIFICATION_TYPE":"U"},{"SITE":"AFETR","PERIOD":"95.437","INCLINATION":"53.2178","CLASSIFICATION_TYPE":"U","OBJECT_NAME":"STARLINK-4047","OBJECT_TYPE":"PAYLOAD","GP_ID":"224960438","LAUNCH_DATE":"2022-07-24","RA_OF_ASC_NODE":"209.7021","ECCENTRICITY":"0.00011690","TLE_LINE1":"1 53243U 22086B   23040.74348589  .00000933  00000-0  76684-4 0  9992","APOAPSIS":"540.545","DECAY_DATE":null,"MEAN_MOTION":"15.08842835","REF_FRAME":"TEME","MEAN_MOTION_DDOT":"0.0000000000000","OBJECT_ID":"2022-086B","CENTER_NAME":"EARTH","PERIAPSIS":"538.928","MEAN_ELEMENT_THEORY":"SGP4","FILE":"3783241","SEMIMAJOR_AXIS":"6917.872","COUNTRY_CODE":"US","MEAN_MOTION_DOT":"0.00000933","TLE_LINE2":"2 53243  53.2178 209.7021 0001169  85.2741 274.8384 15.08842835 31587","TIME_SYSTEM":"UTC","ELEMENT_SET_NO":"999","RCS_SIZE":"LARGE","BSTAR":"0.00007668400000","MEAN_ANOMALY":"274.8384","EPHEMERIS_TYPE":"0","NORAD_CAT_ID":"53243","REV_AT_EPOCH":"3158","ARG_OF_PERICENTER":"85.2741","EPOCH":"2023-02-09T17:50:37.180896"},{"ARG_OF_PERICENTER":"82.6964","EPOCH":"2023-02-09T17:34:43.655808","ELEMENT_SET_NO":"999","RCS_SIZE":"LARGE","BSTAR":"0.00005678000000","REV_AT_EPOCH":"3156","EPHEMERIS_TYPE":"0","NORAD_CAT_ID":"53244","MEAN_ANOMALY":"277.4142","COUNTRY_CODE":"US","SEMIMAJOR_AXIS":"6917.883","FILE":"3783241","MEAN_ELEMENT_THEORY":"SGP4","TLE_LINE2":"2 53244  53.2156 209.7569 0001002  82.6964 277.4142 15.08839193 31567","TIME_SYSTEM":"UTC","MEAN_MOTION_DOT":"0.00000616","OBJECT_ID":"2022-086C","REF_FRAME":"TEME","MEAN_MOTION_DDOT":"0.0000000000000","PERIAPSIS":"539.055","CENTER_NAME":"EARTH","APOAPSIS":"540.441","TLE_LINE1":"1 53244U 22086C   23040.73244972  .00000616  00000-0  56780-4 0  9996","MEAN_MOTION":"15.08839193","DECAY_DATE":null,"LAUNCH_DATE":"2022-07-24","ECCENTRICITY":"0.00010020","RA_OF_ASC_NODE":"209.7569","GP_ID":"224960688","OBJECT_TYPE":"PAYLOAD","CLASSIFICATION_TYPE":"U","OBJECT_NAME":"STARLINK-4125","PERIOD":"95.438","INCLINATION":"53.2156","SITE":"AFETR"},{"APOAPSIS":"540.450","TLE_LINE1":"1 53245U 22086D   23040.73980564  .00001950  00000-0  14056-3 0  9992","MEAN_MOTION":"15.08842925","DECAY_DATE":null,"LAUNCH_DATE":"2022-07-24","ECCENTRICITY":"0.00010310","RA_OF_ASC_NODE":"209.7256","GP_ID":"224959681","OBJECT_TYPE":"PAYLOAD","OBJECT_NAME":"STARLINK-4124","CLASSIFICATION_TYPE":"U","PERIOD":"95.437","INCLINATION":"53.2178","SITE":"AFETR","ARG_OF_PERICENTER":"86.7914","EPOCH":"2023-02-09T17:45:19.207296","RCS_SIZE":"LARGE","ELEMENT_SET_NO":"999","BSTAR":"0.00014056000000","REV_AT_EPOCH":"3158","NORAD_CAT_ID":"53245","EPHEMERIS_TYPE":"0","MEAN_ANOMALY":"273.3196","COUNTRY_CODE":"US","SEMIMAJOR_AXIS":"6917.871","MEAN_ELEMENT_THEORY":"SGP4","FILE":"3783241","TLE_LINE2":"2 53245  53.2178 209.7256 0001031  86.7914 273.3196 15.08842925 31580","TIME_SYSTEM":"UTC","MEAN_MOTION_DOT":"0.00001950","OBJECT_ID":"2022-086D","REF_FRAME":"TEME","MEAN_MOTION_DDOT":"0.0000000000000","PERIAPSIS":"539.023","CENTER_NAME":"EARTH"}];
